IRIDIUM 171             
1 43929U 19002H   24350.99007945  .00000107  00000+0  31008-4 0  9999
2 43929  86.3996 222.8747 0001761  95.8169 264.3227 14.34218190310389
IRIDIUM 170             
1 43930U 19002J   24350.93766040  .00001873  00000+0  29299-3 0  9992
2 43930  86.6114 222.6845 0002280  81.6657 278.4818 14.72259455318599
IRIDIUM 167             
1 43931U 19002K   24351.12326439  .00000375  00000+0  12697-3 0  9999
2 43931  86.3988 222.5913 0001581  85.1461 274.9915 14.34215961310409
IRIDIUM 181             
1 56726U 23068S   24351.13223260  .00000817  00000+0  23561-3 0  9994
2 56726  86.6862 284.9143 0002089  94.7876 265.3564 14.43555944 83382
IRIDIUM 177             
1 56727U 23068T   24351.41157338  .00002598  00000+0  33835-3 0  9991
2 56727  86.1984 228.8214 0002065  79.9629 280.1825 14.80233192 85335
IRIDIUM 174             
1 56728U 23068U   24350.93292319  .00002643  00000+0  34426-3 0  9995
2 56728  86.1993 229.1667 0002186  94.4160 265.7311 14.80239008 85261
IRIDIUM 178             
1 56729U 23068V   24350.72470909  .00002953  00000+0  38521-3 0  9990
2 56729  86.5784 255.3182 0002274 100.1488 259.9990 14.80229734 85233
IRIDIUM 179             
1 56730U 23068W   24350.85446610  .00002992  00000+0  39037-3 0  9994
2 56730  86.6793 261.6851 0002514  85.5096 274.6413 14.80220069 85255
